STARLINK-5300           
1 55676C 23021BA  26127.44562500  .00050046  00000+0  41951-2 0  1270
2 55676  70.0012 356.3491 0002645 263.9415 248.4828 14.98297252    15
STARLINK-5324           
1 55677C 23021BB  26127.46229167  .00062964  00000+0  52779-2 0  1274
2 55677  70.0016 356.2272 0002717 267.9455  42.8939 14.98290517    10
STARLINK-5592           
1 55741C 23028A   26127.46715278 -.00036576  00000+0 -30652-2 0  1274
2 55741  70.0006  96.3738 0002983 273.5400  12.2051 14.98349228    18
STARLINK-5594           
1 55742C 23028B   26127.45326389 -.00015984  00000+0 -13396-2 0  1271
2 55742  70.0007  96.4346 0002452 286.2853 261.9467 14.98337938    19
STARLINK-5602           
1 55743C 23028C   26127.49145833 -.00047225  00000+0 -39576-2 0  1270
2 55743  70.0008  96.3650 0003222 273.1857  98.5874 14.98354413    16
STARLINK-5601           
1 55744C 23028D   26127.43937500 -.00010275  00000+0 -86093-3 0  1277
2 55744  70.0009  96.4706 0002984 276.0669 196.3735 14.98341278    16
STARLINK-5579           
1 55746C 23028F   26127.45743056 -.00025672  00000+0 -21512-2 0  1273
2 55746  70.0007  96.2482 0003144 272.1891  96.1623 14.98347897    14
STARLINK-5539           
1 55747C 23028G   26127.47895833 -.00038870  00000+0 -32581-2 0  1279
2 55747  70.0006  96.2939 0003340 274.3706 120.0231 14.98342606    13
STARLINK-5580           
1 55748C 23028H   26127.46715278 -.00032853  00000+0 -27531-2 0  1277
2 55748  70.0008  96.2987 0003594 270.3199  82.9440 14.98347513    12
STARLINK-5573           
1 55750C 23028K   26127.44076389  .00002000  00000+0  16761-3 0  1274
2 55750  70.0007  96.3400 0003129 279.4041 313.9437 14.98331607    15
STARLINK-5577           
1 55751C 23028L   26127.48312500 -.00041736  00000+0 -34977-2 0  1276
2 55751  70.0006  96.3085 0003158 274.1126 120.2628 14.98351034    19
STARLINK-5613           
1 55752C 23028M   26127.49909722 -.00050436  00000+0 -42274-2 0  1272
2 55752  70.0008  96.0431 0003019 272.5522  50.4047 14.98350105    19
STARLINK-5617           
1 55753C 23028N   26127.44006944 -.00012301  00000+0 -10309-2 0  1275
2 55753  70.0009  96.2943 0003105 272.9561   0.8965 14.98337696    12
STARLINK-5612           
1 55754C 23028P   26127.46576389 -.00027025  00000+0 -22648-2 0  1271
2 55754  70.0010  96.1776 0003063 277.8643 180.3246 14.98344315    18
STARLINK-5614           
1 55756C 23028R   26127.46437500 -.00027710  00000+0 -23232-2 0  1275
2 55756  70.0008  96.0793 0002884 272.7842 268.1070 14.98328215    11
STARLINK-5544           
1 55757C 23028S   26127.44284722 -.00016169  00000+0 -13555-2 0  1273
2 55757  70.0009  96.2603 0003096 270.4675  41.7789 14.98323482    13
STARLINK-5072           
1 55758C 23028T   26127.49076389 -.00043852  00000+0 -36745-2 0  1272
2 55758  70.0009  96.0890 0003029 275.6422 339.9703 14.98357505    14
STARLINK-5532           
1 55760C 23028V   26127.45256944 -.00019909  00000+0 -16690-2 0  1271
2 55760  70.0008  96.0845 0003268 269.6254 230.1007 14.98327803    14
STARLINK-5611           
1 55761C 23028W   26127.47201389 -.00053834  00000+0 -45117-2 0  1278
2 55761  70.0015  76.4326 0003309 273.8380  83.4395 14.98355422    19
STARLINK-5603           
1 55762C 23028X   26127.46437500 -.00053287  00000+0 -44661-2 0  1279
2 55762  70.0015  76.3744 0003415 267.3138 117.1856 14.98352508    19
STARLINK-5593           
1 55763C 23028Y   26127.44631944 -.00019976  00000+0 -16740-2 0  1270
2 55763  70.0009  96.1511 0003419 267.8854 153.1062 14.98341516    15
STARLINK-5499           
1 55764C 23028Z   26127.45881944 -.00052148  00000+0 -43706-2 0  1279
2 55764  70.0014  76.4131 0003263 271.9337  60.0998 14.98353184    18
STARLINK-5595           
1 55765C 23028AA  26127.46576389 -.00053128  00000+0 -44527-2 0  1276
2 55765  70.0014  76.4207 0003091 272.9754  73.9970 14.98354087    12
STARLINK-5599           
1 55766C 23028AB  26127.44562500 -.00050135  00000+0 -41990-2 0  1271
2 55766  70.0015  76.3205 0003016 275.1823  98.2540 14.98378832    17
STARLINK-5606           
1 55767C 23028AC  26127.46437500 -.00052277  00000+0 -43817-2 0  1274
2 55767  70.0015  76.4502 0003395 268.0905  48.7894 14.98349765    16
STARLINK-5584           
1 55769C 23028AE  26127.49562500 -.00051835  00000+0 -43445-2 0  1274
2 55769  70.0014  76.2446 0002988 269.9905 328.0556 14.98351694    12
STARLINK-5557           
1 55770C 23028AF  26127.46159722 -.00052280  00000+0 -43823-2 0  1276
2 55770  70.0012  76.3043 0002912 271.9065 165.1541 14.98348067    17
STARLINK-5591           
1 55771C 23028AG  26127.43729167 -.00047422  00000+0 -39735-2 0  1279
2 55771  70.0016  76.3170 0002799 270.6035  80.3225 14.98361470    19
STARLINK-5835           
1 55772C 23028AH  26127.44631944 -.00045523  00000+0 -38166-2 0  1273
2 55772  70.0015  76.1949 0003076 274.4982 214.3385 14.98338035    10
STARLINK-5833           
1 55773C 23028AJ  26127.44284722 -.00047276  00000+0 -39624-2 0  1279
2 55773  70.0016  76.4014 0003125 272.9806  17.9409 14.98349937    18
STARLINK-5812           
1 55774C 23028AK  26127.44145833 -.00047607  00000+0 -39917-2 0  1272
2 55774  70.0013  76.2795 0002962 273.9693 122.0966 14.98334854    11
STARLINK-5809           
1 55775C 23028AL  26127.45187500 -.00048114  00000+0 -40323-2 0  1278
2 55775  70.0015  76.2295 0003023 272.7108 201.9592 14.98353680    16
STARLINK-5814           
1 55777C 23028AN  26127.44145833 -.00044307  00000+0 -37147-2 0  1272
2 55777  70.0016  76.2058 0003269 273.3596 190.1698 14.98335391    11
STARLINK-5816           
1 55778C 23028AP  26127.48381944 -.00055215  00000+0 -46277-2 0  1276
2 55778  70.0017  76.0741 0003325 265.2376  89.2141 14.98353747    15
STARLINK-5817           
1 55779C 23028AQ  26127.46368056 -.00048393  00000+0 -40566-2 0  1278
2 55779  70.0016  56.0648 0002895 270.4382 134.1840 14.98345494    11
STARLINK-5819           
1 55780C 23028AR  26127.47687500 -.00054635  00000+0 -45792-2 0  1271
2 55780  70.0016  76.0656 0003087 272.9595  66.5512 14.98352906    11
STARLINK-5820           
1 55781C 23028AS  26127.44215278 -.00045472  00000+0 -38105-2 0  1277
2 55781  70.0015  76.2626 0002992 272.5618 172.1219 14.98355384    17
STARLINK-5826           
1 55782C 23028AT  26127.45743056 -.00050628  00000+0 -42438-2 0  1272
2 55782  70.0018  56.4646 0002949 270.6009 121.7985 14.98347596    14
STARLINK-5825           
1 55783C 23028AU  26127.43659722 -.00052922  00000+0 -44348-2 0  1278
2 55783  70.0017  56.5146 0003072 268.3719  12.4609 14.98359855    10
STARLINK-5797           
1 55784C 23028AV  26127.46993056 -.00091938  00000+0 -76892-2 0  1272
2 55784  70.0020  56.3329 0002539 259.7031 290.0363 14.98455968    17
STARLINK-5818           
1 55785C 23028AW  26127.49493056 -.00033902  00000+0 -28419-2 0  1270
2 55785  70.0019  56.3432 0002565 270.9791 347.0396 14.98337502    10
STARLINK-5823           
1 55786C 23028AX  26127.49562500 -.00033979  00000+0 -28499-2 0  1274
2 55786  70.0020  56.2672 0003195 276.1024  53.2211 14.98315825    11
STARLINK-5811           
1 55787C 23028AY  26127.49840278 -.00031774  00000+0 -26633-2 0  1275
2 55787  70.0020  56.3099 0002907 272.9995  26.2514 14.98339811    14
STARLINK-5804           
1 55788C 23028AZ  26127.46090278 -.00048809  00000+0 -40910-2 0  1271
2 55788  70.0020  56.3797 0002884 272.9499 206.5912 14.98350322    18
STARLINK-5815           
1 55789C 23028BA  26127.45048611 -.00048136  00000+0 -40345-2 0  1270
2 55789  70.0020  56.2525 0003107 270.8971 287.5149 14.98349912    12
STARLINK-5813           
1 55790C 23028BB  26127.49145833 -.00036143  00000+0 -30295-2 0  1278
2 55790  70.0020  56.1763 0003021 267.7729 128.0947 14.98341122    18
STARLINK-5807           
1 55791C 23028BC  26127.44979167 -.00050861  00000+0 -42628-2 0  1275
2 55791  70.0021  56.3569 0002945 271.8726 192.7652 14.98352289    10
STARLINK-5856           
1 55914C 23037A   26127.49006944  .00038675  00000+0  32411-2 0  1277
2 55914  70.0006 156.3530 0003559 273.1806 357.3876 14.98311137    19
STARLINK-5859           
1 55915C 23037B   26127.48659722  .00035615  00000+0  29845-2 0  1273
2 55915  70.0002 156.2592 0003789 270.8865  70.9886 14.98313550    17
STARLINK-5796           
1 55916C 23037C   26127.46506944  .00063842  00000+0  53525-2 0  1274
2 55916  70.0007 156.3901 0004291 271.0730 247.2197 14.98277861    19
STARLINK-5867           
1 55918C 23037E   26127.49145833  .00032597  00000+0  27312-2 0  1273
2 55918  70.0005 156.2979 0004086 268.7582  54.3105 14.98319658    10
STARLINK-5871           
1 55919C 23037F   26127.43659722  .00022598  00000+0  18937-2 0  1278
2 55919  70.0003 156.3857 0003694 271.0144 160.3468 14.98318309    12
STARLINK-5862           
1 55920C 23037G   26127.46784722  .00038536  00000+0  32297-2 0  1276
2 55920  70.0001 136.4525 0003615 271.9252 307.5389 14.98306680    11
STARLINK-5861           
1 55921C 23037H   26127.49701389  .00040338  00000+0  33804-2 0  1276
2 55921  70.0004 156.1327 0003410 272.3734 215.7191 14.98310100    10
STARLINK-5863           
1 55922C 23037J   26127.48729167  .00036242  00000+0  30370-2 0  1274
2 55922  70.0003 156.1821 0003617 270.9536 142.1929 14.98313787    18
STARLINK-5854           
1 55923C 23037K   26127.49840278  .00039896  00000+0  33437-2 0  1278
2 55923  70.0002 156.1787 0003990 271.6131 178.9396 14.98305914    10
STARLINK-5849           
1 55924C 23037L   26127.47479167  .00003929  00000+0  32930-3 0  1278
2 55924  70.0001 136.4082 0003535 272.5352   6.9175 14.98326454    16
STARLINK-5922           
1 55925C 23037M   26127.44770833  .00029610  00000+0  24815-2 0  1277
2 55925  70.0004 156.2313 0003434 272.1144 332.6101 14.98313552    13
STARLINK-5921           
1 55926C 23037N   26127.45673611  .00032200  00000+0  26984-2 0  1273
2 55926  70.0003 136.4062 0003721 273.0381 314.0464 14.98312834    14
